EUTELSAT 8 WEST B       
1 40875U 15039B   25324.87273397 -.00000044  00000+0  00000+0 0  9991
2 40875   0.0669 352.7287 0004188 252.6147 120.9962  1.00270074 37560
EUTELSAT 9B             
1 41310U 16005A   25324.80478690  .00000084  00000+0  00000+0 0  9999
2 41310   0.0756  79.0928 0004299 180.6476  99.0522  1.00272624 36022
EUTELSAT 65 WEST A      
1 41382U 16014A   25324.79005348 -.00000255  00000+0  00000+0 0  9993
2 41382   0.0563  14.8292 0002461 233.3614  31.1096  1.00271427 35445
EUTELSAT 117 WEST B     
1 41589U 16038B   25324.63707201  .00000010  00000+0  00000+0 0  9996
2 41589   0.0081 160.2236 0000140  71.9164 300.1418  1.00270277 34573
EUTELSAT 172B           
1 42741U 17029B   25324.76570000  .00000017  00000+0  00000+0 0  9994
2 42741   0.0411 139.6974 0000242 310.9660  57.0328  1.00272724 31642
EUTELSAT 7C             
1 44334U 19034B   25324.59035840  .00000070  00000+0  00000+0 0  9990
2 44334   0.0748 183.9761 0003173  29.5924  65.8650  1.00271721  4745
EUTELSAT 5 WEST B       
1 44624U 19067A   25324.80201354 -.00000020  00000+0  00000+0 0  9993
2 44624   0.0710 328.4045 0003112 270.6981 104.7162  1.00271247 22342
EUTELSAT KONNECT        
1 45027U 20005B   25324.80444022  .00000072  00000+0  00000+0 0  9992
2 45027   0.0651  99.4218 0001234 187.8334  69.6243  1.00274048 22234
